{
  "type": "FeatureCollection",
  "features": [
    {
      "type": "Feature",
      "properties": {
        "norad_id": 66716,
        "name": "FLOCK 4H-13",
        "group": "last-30-days",
        "lat": 63.49354754224774,
        "lon": -98.28786303775682,
        "alt_km": 504.29011273591095,
        "timestamp": "2025-12-20T20:38:43.172181+00:00",
        "meta_object_name": "FLOCK 4H-13",
        "meta_object_id": "2025-276BC",
        "meta_epoch": "2025-12-20T13:48:39.769920",
        "meta_mean_motion": 15.18159822,
        "meta_eccentricity": 0.00015762,
        "meta_inclination": 97.444,
        "meta_ra_of_asc_node": 66.2332,
        "meta_arg_of_pericenter": 146.7753,
        "meta_mean_anomaly": 213.358,
        "meta_ephemeris_type": 0,
        "meta_classification_type": "U",
        "meta_norad_cat_id": 66716,
        "meta_element_set_no": 999,
        "meta_rev_at_epoch": 331,
        "meta_bstar": 0.0003056519,
        "meta_mean_motion_dot": 6.177e-05,
        "meta_mean_motion_ddot": 0,
        "tle_line1": "1 66716U 25276BC  25354.57546030  .00006177  00000+0  30565-3 0  9999",
        "tle_line2": "2 66716  97.4440  66.2332 0001576 146.7753 213.3580 15.18159822  3311"
      },
      "geometry": {
        "type": "Point",
        "coordinates": [
          -98.28786303775682,
          63.49354754224774
        ]
      }
    },
    {
      "type": "Feature",
      "properties": {
        "norad_id": 66717,
        "name": "FLOCK 4H-14",
        "group": "last-30-days",
        "lat": 54.08120335637909,
        "lon": -103.09001690891408,
        "alt_km": 504.87552023496664,
        "timestamp": "2025-12-20T20:38:43.172192+00:00",
        "meta_object_name": "FLOCK 4H-14",
        "meta_object_id": "2025-276BD",
        "meta_epoch": "2025-12-20T13:46:08.760000",
        "meta_mean_motion": 15.18311745,
        "meta_eccentricity": 0.00014506,
        "meta_inclination": 97.4426,
        "meta_ra_of_asc_node": 66.2313,
        "meta_arg_of_pericenter": 132.5712,
        "meta_mean_anomaly": 227.5644,
        "meta_ephemeris_type": 0,
        "meta_classification_type": "U",
        "meta_norad_cat_id": 66717,
        "meta_element_set_no": 999,
        "meta_rev_at_epoch": 256,
        "meta_bstar": 0.00026140996,
        "meta_mean_motion_dot": 5.296e-05,
        "meta_mean_motion_ddot": 0,
        "tle_line1": "1 66717U 25276BD  25354.57371250  .00005296  00000+0  26141-3 0  9996",
        "tle_line2": "2 66717  97.4426  66.2313 0001450 132.5712 227.5644 15.18311745  2562"
      },
      "geometry": {
        "type": "Point",
        "coordinates": [
          -103.09001690891408,
          54.08120335637909
        ]
      }
    },
    {
      "type": "Feature",
      "properties": {
        "norad_id": 66718,
        "name": "FLOCK 4H-15",
        "group": "last-30-days",
        "lat": 32.30137936880824,
        "lon": 61.73628656383506,
        "alt_km": 513.6333706747346,
        "timestamp": "2025-12-20T20:38:43.172201+00:00",
        "meta_object_name": "FLOCK 4H-15",
        "meta_object_id": "2025-276BE",
        "meta_epoch": "2025-12-20T01:30:21.849696",
        "meta_mean_motion": 15.17073597,
        "meta_eccentricity": 0.00030538,
        "meta_inclination": 97.4434,
        "meta_ra_of_asc_node": 65.6942,
        "meta_arg_of_pericenter": 283.5024,
        "meta_mean_anomaly": 76.5869,
        "meta_ephemeris_type": 0,
        "meta_classification_type": "U",
        "meta_norad_cat_id": 66718,
        "meta_element_set_no": 999,
        "meta_rev_at_epoch": 323,
        "meta_bstar": 0.00022690308,
        "meta_mean_motion_dot": 4.427e-05,
        "meta_mean_motion_ddot": 0,
        "tle_line1": "1 66718U 25276BE  25354.06275289  .00004427  00000+0  22690-3 0  9996",
        "tle_line2": "2 66718  97.4434  65.6942 0003053 283.5024  76.5869 15.17073597  3232"
      },
      "geometry": {
        "type": "Point",
        "coordinates": [
          61.73628656383506,
          32.30137936880824
        ]
      }
    },
    {
      "type": "Feature",
      "properties": {
        "norad_id": 66719,
        "name": "FLOCK 4H-16",
        "group": "last-30-days",
        "lat": 40.59826778812023,
        "lon": 60.05070778923654,
        "alt_km": 512.7131047824068,
        "timestamp": "2025-12-20T20:38:43.172212+00:00",
        "meta_object_name": "FLOCK 4H-16",
        "meta_object_id": "2025-276BF",
        "meta_epoch": "2025-12-20T14:08:00.960000",
        "meta_mean_motion": 15.17195126,
        "meta_eccentricity": 0.00029631,
        "meta_inclination": 97.4451,
        "meta_ra_of_asc_node": 66.2191,
        "meta_arg_of_pericenter": 263.247,
        "meta_mean_anomaly": 96.8426,
        "meta_ephemeris_type": 0,
        "meta_classification_type": "U",
        "meta_norad_cat_id": 66719,
        "meta_element_set_no": 999,
        "meta_rev_at_epoch": 331,
        "meta_bstar": 0.00039433509,
        "meta_mean_motion_dot": 7.772e-05,
        "meta_mean_motion_ddot": 0,
        "tle_line1": "1 66719U 25276BF  25354.58890000  .00007772  00000+0  39434-3 0  9998",
        "tle_line2": "2 66719  97.4451  66.2191 0002963 263.2470  96.8426 15.17195126  3310"
      },
      "geometry": {
        "type": "Point",
        "coordinates": [
          60.05070778923654,
          40.59826778812023
        ]
      }
    },
    {
      "type": "Feature",
      "properties": {
        "norad_id": 66720,
        "name": "FLOCK 4H-17",
        "group": "last-30-days",
        "lat": 72.99473094231139,
        "lon": -88.16931883547689,
        "alt_km": 504.8831927260062,
        "timestamp": "2025-12-20T20:38:43.172222+00:00",
        "meta_object_name": "FLOCK 4H-17",
        "meta_object_id": "2025-276BG",
        "meta_epoch": "2025-12-20T04:21:46.615392",
        "meta_mean_motion": 15.18028916,
        "meta_eccentricity": 0.00024739,
        "meta_inclination": 97.4453,
        "meta_ra_of_asc_node": 65.8481,
        "meta_arg_of_pericenter": 200.8658,
        "meta_mean_anomaly": 159.2476,
        "meta_ephemeris_type": 0,
        "meta_classification_type": "U",
        "meta_norad_cat_id": 66720,
        "meta_element_set_no": 999,
        "meta_rev_at_epoch": 325,
        "meta_bstar": 0.00029797788,
        "meta_mean_motion_dot": 5.998e-05,
        "meta_mean_motion_ddot": 0,
        "tle_line1": "1 66720U 25276BG  25354.18178953  .00005998  00000+0  29798-3 0  9992",
        "tle_line2": "2 66720  97.4453  65.8481 0002473 200.8658 159.2476 15.18028916  3257"
      },
      "geometry": {
        "type": "Point",
        "coordinates": [
          -88.16931883547689,
          72.99473094231139
        ]
      }
    },
    {
      "type": "Feature",
      "properties": {
        "norad_id": 66721,
        "name": "FLOCK 4H-18",
        "group": "last-30-days",
        "lat": 34.98117006368189,
        "lon": 61.220658241314744,
        "alt_km": 512.7884428745938,
        "timestamp": "2025-12-20T20:38:43.172231+00:00",
        "meta_object_name": "FLOCK 4H-18",
        "meta_object_id": "2025-276BH",
        "meta_epoch": "2025-12-20T14:09:30.009888",
        "meta_mean_motion": 15.17118542,
        "meta_eccentricity": 0.00027844,
        "meta_inclination": 97.4376,
        "meta_ra_of_asc_node": 66.2,
        "meta_arg_of_pericenter": 291.1596,
        "meta_mean_anomaly": 68.934,
        "meta_ephemeris_type": 0,
        "meta_classification_type": "U",
        "meta_norad_cat_id": 66721,
        "meta_element_set_no": 999,
        "meta_rev_at_epoch": 331,
        "meta_bstar": 0.00053907394,
        "meta_mean_motion_dot": 0.0001063,
        "meta_mean_motion_ddot": 0,
        "tle_line1": "1 66721U 25276BH  25354.58993067  .00010630  00000+0  53907-3 0  9996",
        "tle_line2": "2 66721  97.4376  66.2000 0002784 291.1596  68.9340 15.17118542  3310"
      },
      "geometry": {
        "type": "Point",
        "coordinates": [
          61.220658241314744,
          34.98117006368189
        ]
      }
    },
    {
      "type": "Feature",
      "properties": {
        "norad_id": 66722,
        "name": "FLOCK 4H-19",
        "group": "last-30-days",
        "lat": 59.5545848305775,
        "lon": -100.65171867251651,
        "alt_km": 504.3828987724082,
        "timestamp": "2025-12-20T20:38:43.172242+00:00",
        "meta_object_name": "FLOCK 4H-19",
        "meta_object_id": "2025-276BJ",
        "meta_epoch": "2025-12-20T13:47:35.654208",
        "meta_mean_motion": 15.18202335,
        "meta_eccentricity": 0.00021953,
        "meta_inclination": 97.44,
        "meta_ra_of_asc_node": 66.2215,
        "meta_arg_of_pericenter": 161.3357,
        "meta_mean_anomaly": 198.7958,
        "meta_ephemeris_type": 0,
        "meta_classification_type": "U",
        "meta_norad_cat_id": 66722,
        "meta_element_set_no": 999,
        "meta_rev_at_epoch": 260,
        "meta_bstar": 0.00030709309,
        "meta_mean_motion_dot": 6.214e-05,
        "meta_mean_motion_ddot": 0,
        "tle_line1": "1 66722U 25276BJ  25354.57471822  .00006214  00000+0  30709-3 0  9994",
        "tle_line2": "2 66722  97.4400  66.2215 0002195 161.3357 198.7958 15.18202335  2609"
      },
      "geometry": {
        "type": "Point",
        "coordinates": [
          -100.65171867251651,
          59.5545848305775
        ]
      }
    }
  ]
}